[{"OBJECT_NAME":"STARLINK-36930","OBJECT_ID":"2026-040D","EPOCH":"2026-03-28T22:00:01.999584","MEAN_MOTION":15.75200622,"ECCENTRICITY":0.00013595,"INCLINATION":97.2861,"RA_OF_ASC_NODE":37.3074,"ARG_OF_PERICENTER":86.3139,"MEAN_ANOMALY":204.3393,"EPHEMERIS_TYPE":0,"CLASSIFICATION_TYPE":"U","NORAD_CAT_ID":68018,"ELEMENT_SET_NO":999,"REV_AT_EPOCH":552,"BSTAR":-7.4296488e-5,"MEAN_MOTION_DOT":-0.00011202,"MEAN_MOTION_DDOT":0},{"OBJECT_NAME":"STARLINK-36921","OBJECT_ID":"2026-040E","EPOCH":"2026-03-28T19:09:07.916256","MEAN_MOTION":15.75272984,"ECCENTRICITY":0.00019943,"INCLINATION":97.2857,"RA_OF_ASC_NODE":37.1948,"ARG_OF_PERICENTER":99.2159,"MEAN_ANOMALY":260.9332,"EPHEMERIS_TYPE":0,"CLASSIFICATION_TYPE":"U","NORAD_CAT_ID":68019,"ELEMENT_SET_NO":999,"REV_AT_EPOCH":436,"BSTAR":0.0015859331,"MEAN_MOTION_DOT":0.0024419,"MEAN_MOTION_DDOT":0},{"OBJECT_NAME":"STARLINK-36928","OBJECT_ID":"2026-040F","EPOCH":"2026-03-28T19:10:39.452736","MEAN_MOTION":15.75216796,"ECCENTRICITY":0.00013,"INCLINATION":97.2862,"RA_OF_ASC_NODE":37.1913,"ARG_OF_PERICENTER":69.703,"MEAN_ANOMALY":290.4375,"EPHEMERIS_TYPE":0,"CLASSIFICATION_TYPE":"U","NORAD_CAT_ID":68020,"ELEMENT_SET_NO":999,"REV_AT_EPOCH":436,"BSTAR":0.0015395931,"MEAN_MOTION_DOT":0.00236251,"MEAN_MOTION_DDOT":0},{"OBJECT_NAME":"STARLINK-36858","OBJECT_ID":"2026-040G","EPOCH":"2026-03-24T12:55:13.776960","MEAN_MOTION":15.75331784,"ECCENTRICITY":0.00016946,"INCLINATION":97.2853,"RA_OF_ASC_NODE":32.8877,"ARG_OF_PERICENTER":78.8231,"MEAN_ANOMALY":281.3225,"EPHEMERIS_TYPE":0,"CLASSIFICATION_TYPE":"U","NORAD_CAT_ID":68021,"ELEMENT_SET_NO":999,"REV_AT_EPOCH":370,"BSTAR":0.0017848498,"MEAN_MOTION_DOT":0.00276588,"MEAN_MOTION_DDOT":0},{"OBJECT_NAME":"STARLINK-36916","OBJECT_ID":"2026-040H","EPOCH":"2026-03-28T22:00:01.999584","MEAN_MOTION":15.6782156,"ECCENTRICITY":0.00017083,"INCLINATION":97.2849,"RA_OF_ASC_NODE":37.3126,"ARG_OF_PERICENTER":104.2175,"MEAN_ANOMALY":191.1415,"EPHEMERIS_TYPE":0,"CLASSIFICATION_TYPE":"U","NORAD_CAT_ID":68022,"ELEMENT_SET_NO":999,"REV_AT_EPOCH":552,"BSTAR":-0.02037148,"MEAN_MOTION_DOT":-0.01972415,"MEAN_MOTION_DDOT":0},{"OBJECT_NAME":"STARLINK-36871","OBJECT_ID":"2026-040J","EPOCH":"2026-03-28T20:38:34.797408","MEAN_MOTION":15.75213622,"ECCENTRICITY":0.00013922,"INCLINATION":97.2869,"RA_OF_ASC_NODE":37.2588,"ARG_OF_PERICENTER":106.2343,"MEAN_ANOMALY":253.9076,"EPHEMERIS_TYPE":0,"CLASSIFICATION_TYPE":"U","NORAD_CAT_ID":68023,"ELEMENT_SET_NO":999,"REV_AT_EPOCH":437,"BSTAR":0.00069340896,"MEAN_MOTION_DOT":0.0010468,"MEAN_MOTION_DDOT":0},{"OBJECT_NAME":"STARLINK-36891","OBJECT_ID":"2026-040K","EPOCH":"2026-03-28T20:37:33.897504","MEAN_MOTION":15.75238435,"ECCENTRICITY":0.00011896,"INCLINATION":97.2866,"RA_OF_ASC_NODE":37.2607,"ARG_OF_PERICENTER":86.7874,"MEAN_ANOMALY":273.3527,"EPHEMERIS_TYPE":0,"CLASSIFICATION_TYPE":"U","NORAD_CAT_ID":68024,"ELEMENT_SET_NO":999,"REV_AT_EPOCH":437,"BSTAR":0.0011350235,"MEAN_MOTION_DOT":0.00173001,"MEAN_MOTION_DDOT":0},{"OBJECT_NAME":"STARLINK-36378","OBJECT_ID":"2026-040L","EPOCH":"2026-03-28T20:35:31.851456","MEAN_MOTION":15.75235611,"ECCENTRICITY":0.00014731,"INCLINATION":97.2862,"RA_OF_ASC_NODE":37.2655,"ARG_OF_PERICENTER":103.611,"MEAN_ANOMALY":256.532,"EPHEMERIS_TYPE":0,"CLASSIFICATION_TYPE":"U","NORAD_CAT_ID":68025,"ELEMENT_SET_NO":999,"REV_AT_EPOCH":437,"BSTAR":0.001094844,"MEAN_MOTION_DOT":0.00166729,"MEAN_MOTION_DDOT":0},{"OBJECT_NAME":"STARLINK-36884","OBJECT_ID":"2026-040M","EPOCH":"2026-03-28T19:04:33.387168","MEAN_MOTION":15.75276369,"ECCENTRICITY":0.00015262,"INCLINATION":97.2867,"RA_OF_ASC_NODE":37.1961,"ARG_OF_PERICENTER":102.1687,"MEAN_ANOMALY":257.9749,"EPHEMERIS_TYPE":0,"CLASSIFICATION_TYPE":"U","NORAD_CAT_ID":68026,"ELEMENT_SET_NO":999,"REV_AT_EPOCH":436,"BSTAR":0.0015681425,"MEAN_MOTION_DOT":0.00241402,"MEAN_MOTION_DDOT":0},{"OBJECT_NAME":"STARLINK-36940","OBJECT_ID":"2026-040N","EPOCH":"2026-03-28T20:23:20.215392","MEAN_MOTION":15.75231086,"ECCENTRICITY":0.00019197,"INCLINATION":97.2856,"RA_OF_ASC_NODE":37.2817,"ARG_OF_PERICENTER":52.7027,"MEAN_ANOMALY":307.4413,"EPHEMERIS_TYPE":0,"CLASSIFICATION_TYPE":"U","NORAD_CAT_ID":68027,"ELEMENT_SET_NO":999,"REV_AT_EPOCH":437,"BSTAR":0.0009358636,"MEAN_MOTION_DOT":0.00142062,"MEAN_MOTION_DDOT":0},{"OBJECT_NAME":"STARLINK-36253","OBJECT_ID":"2026-040P","EPOCH":"2026-03-28T22:00:01.999584","MEAN_MOTION":15.33404974,"ECCENTRICITY":0.00022264,"INCLINATION":97.2848,"RA_OF_ASC_NODE":36.7555,"ARG_OF_PERICENTER":89.6677,"MEAN_ANOMALY":345.1282,"EPHEMERIS_TYPE":0,"CLASSIFICATION_TYPE":"U","NORAD_CAT_ID":68028,"ELEMENT_SET_NO":999,"REV_AT_EPOCH":562,"BSTAR":0.00045003922,"MEAN_MOTION_DOT":0.00014464,"MEAN_MOTION_DDOT":0},{"OBJECT_NAME":"STARLINK-36944","OBJECT_ID":"2026-040Q","EPOCH":"2026-03-28T20:34:31.050048","MEAN_MOTION":15.75226837,"ECCENTRICITY":0.00015262,"INCLINATION":97.2868,"RA_OF_ASC_NODE":37.264,"ARG_OF_PERICENTER":67.1203,"MEAN_ANOMALY":293.0223,"EPHEMERIS_TYPE":0,"CLASSIFICATION_TYPE":"U","NORAD_CAT_ID":68029,"ELEMENT_SET_NO":999,"REV_AT_EPOCH":437,"BSTAR":0.0009741439,"MEAN_MOTION_DOT":0.0014795,"MEAN_MOTION_DDOT":0},{"OBJECT_NAME":"STARLINK-36942","OBJECT_ID":"2026-040R","EPOCH":"2026-03-28T20:33:30.099168","MEAN_MOTION":15.75213504,"ECCENTRICITY":0.00016394,"INCLINATION":97.2862,"RA_OF_ASC_NODE":37.2671,"ARG_OF_PERICENTER":77.4887,"MEAN_ANOMALY":282.6561,"EPHEMERIS_TYPE":0,"CLASSIFICATION_TYPE":"U","NORAD_CAT_ID":68030,"ELEMENT_SET_NO":999,"REV_AT_EPOCH":437,"BSTAR":0.00069713315,"MEAN_MOTION_DOT":0.00105251,"MEAN_MOTION_DDOT":0},{"OBJECT_NAME":"STARLINK-36913","OBJECT_ID":"2026-040S","EPOCH":"2026-03-28T22:00:01.999584","MEAN_MOTION":15.62683953,"ECCENTRICITY":0.00018578,"INCLINATION":97.2848,"RA_OF_ASC_NODE":37.3074,"ARG_OF_PERICENTER":94.6668,"MEAN_ANOMALY":182.9964,"EPHEMERIS_TYPE":0,"CLASSIFICATION_TYPE":"U","NORAD_CAT_ID":68031,"ELEMENT_SET_NO":999,"REV_AT_EPOCH":552,"BSTAR":-0.025003749,"MEAN_MOTION_DOT":-0.01970788,"MEAN_MOTION_DDOT":0},{"OBJECT_NAME":"STARLINK-36935","OBJECT_ID":"2026-040T","EPOCH":"2026-03-28T20:25:22.077408","MEAN_MOTION":15.75194121,"ECCENTRICITY":0.00013735,"INCLINATION":97.2862,"RA_OF_ASC_NODE":37.2763,"ARG_OF_PERICENTER":22.0941,"MEAN_ANOMALY":338.0383,"EPHEMERIS_TYPE":0,"CLASSIFICATION_TYPE":"U","NORAD_CAT_ID":68032,"ELEMENT_SET_NO":999,"REV_AT_EPOCH":437,"BSTAR":0.00096838868,"MEAN_MOTION_DOT":0.00146847,"MEAN_MOTION_DDOT":0},{"OBJECT_NAME":"STARLINK-36947","OBJECT_ID":"2026-040U","EPOCH":"2026-03-28T20:31:27.615936","MEAN_MOTION":15.75286656,"ECCENTRICITY":0.00016119,"INCLINATION":97.2845,"RA_OF_ASC_NODE":37.2686,"ARG_OF_PERICENTER":106.9684,"MEAN_ANOMALY":253.1758,"EPHEMERIS_TYPE":0,"CLASSIFICATION_TYPE":"U","NORAD_CAT_ID":68033,"ELEMENT_SET_NO":999,"REV_AT_EPOCH":437,"BSTAR":0.0016484128,"MEAN_MOTION_DOT":0.00254265,"MEAN_MOTION_DDOT":0}]
