STARLINK-36930          
1 68018U 26040D   26087.91668981 -.00011202  00000+0 -74296-4 0  9995
2 68018  97.2861  37.3074 0001359  86.3139 204.3393 15.75200622  5526
STARLINK-36921          
1 68019U 26040E   26087.79800829  .00244190  00000+0  15859-2 0  9991
2 68019  97.2857  37.1948 0001994  99.2159 260.9332 15.75272984  4362
STARLINK-36928          
1 68020U 26040F   26087.79906774  .00236251  00000+0  15396-2 0  9994
2 68020  97.2862  37.1913 0001300  69.7030 290.4375 15.75216796  4367
STARLINK-36858          
1 68021U 26040G   26083.53835390  .00276588  00000+0  17848-2 0  9999
2 68021  97.2853  32.8877 0001694  78.8231 281.3225 15.75331784  3704
STARLINK-36916          
1 68022U 26040H   26087.91668981 -.01972415  00000+0 -20371-1 0  9995
2 68022  97.2849  37.3126 0001708 104.2175 191.1415 15.67821560  5522
STARLINK-36871          
1 68023U 26040J   26087.86012497  .00104680  00000+0  69341-3 0  9995
2 68023  97.2869  37.2588 0001392 106.2343 253.9076 15.75213622  4379
STARLINK-36891          
1 68024U 26040K   26087.85942011  .00173001  00000+0  11350-2 0  9998
2 68024  97.2866  37.2607 0001189  86.7874 273.3527 15.75238435  4370
STARLINK-36378          
1 68025U 26040L   26087.85800754  .00166729  00000+0  10948-2 0  9997
2 68025  97.2862  37.2655 0001473 103.6110 256.5320 15.75235611  4375
STARLINK-36884          
1 68026U 26040M   26087.79483087  .00241402  00000+0  15681-2 0  9998
2 68026  97.2867  37.1961 0001526 102.1687 257.9749 15.75276369  4366
STARLINK-36940          
1 68027U 26040N   26087.84953953  .00142062  00000+0  93586-3 0  9992
2 68027  97.2856  37.2817 0001919  52.7027 307.4413 15.75231086  4377
STARLINK-36253          
1 68028U 26040P   26087.91668981  .00014464  00000+0  45004-3 0  9991
2 68028  97.2848  36.7555 0002226  89.6677 345.1282 15.33404974  5628
STARLINK-36944          
1 68029U 26040Q   26087.85730382  .00147950  00000+0  97414-3 0  9999
2 68029  97.2868  37.2640 0001526  67.1203 293.0223 15.75226837  4373
STARLINK-36942          
1 68030U 26040R   26087.85659837  .00105251  00000+0  69713-3 0  9995
2 68030  97.2862  37.2671 0001639  77.4887 282.6561 15.75213504  4376
STARLINK-36913          
1 68031U 26040S   26087.91668981 -.01970788  00000+0 -25004-1 0  9994
2 68031  97.2848  37.3074 0001857  94.6668 182.9964 15.62683953  5521
STARLINK-36935          
1 68032U 26040T   26087.85094997  .00146847  00000+0  96839-3 0  9992
2 68032  97.2862  37.2763 0001373  22.0941 338.0383 15.75194121  4373
STARLINK-36947          
1 68033U 26040U   26087.85518074  .00254265  00000+0  16484-2 0  9991
2 68033  97.2845  37.2686 0001611 106.9684 253.1758 15.75286656  4378
